QIANFAN-8               
1 60386U 24140H   26195.89993004  .00000095  00000+0  12789-3 0  9992
2 60386  88.9740 277.0530 0014347 302.4593  57.5171 13.51015213 96261
QIANFAN-9               
1 60387U 24140J   26195.87515056  .00000091  00000+0  12298-3 0  9999
2 60387  88.9738 277.1265 0014021 302.2963  57.6830 13.51020811 96244
QIANFAN-10              
1 60388U 24140K   26195.87927321  .00000116  00000+0  16078-3 0  9990
2 60388  88.9749 276.4956 0012327 275.7736  84.2009 13.51022062 96373
QIANFAN-11              
1 60389U 24140L   26195.91635311  .00000109  00000+0  15000-3 0  9997
2 60389  88.9674 276.9178 0012063 302.4114  57.5870 13.51015983 96033
QIANFAN-12              
1 60390U 24140M   26195.93699284  .00000089  00000+0  11908-3 0  9990
2 60390  88.9717 277.0524 0011040 312.5304  47.4914 13.51018122 96166
QIANFAN-13              
1 60391U 24140N   26195.90815018  .00000099  00000+0  13535-3 0  9992
2 60391  88.9729 277.1812 0010926 315.8869  44.1410 13.51018238 96180
QIANFAN-14              
1 60392U 24140P   26195.93290967  .00000098  00000+0  13287-3 0  9999
2 60392  88.9708 277.0310 0014591 314.0610  45.9339 13.51011746 96194
QIANFAN-15              
1 60393U 24140Q   26195.86701126  .00000093  00000+0  12529-3 0  9999
2 60393  88.9731 277.0452 0010142 299.6616  60.3525 13.51012217 96170
QIANFAN-16              
1 60394U 24140R   26195.92876515  .00000102  00000+0  13892-3 0  9997
2 60394  88.9734 277.1650 0012651 319.4080  40.6127 13.51020159 96092
QIANFAN-17              
1 60395U 24140S   26195.92459203  .00000103  00000+0  14063-3 0  9991
2 60395  88.9745 277.2347 0012881 311.9419  48.0634 13.51016183 97051
QIANFAN-18              
1 60396U 24140T   26195.90399355  .00000090  00000+0  12086-3 0  9999
2 60396  88.9739 276.7563 0011939 291.7587  68.2293 13.51015637 96443
STARLINK-11228 [DTC]    
1 60398U 24141A   26195.33405850  .00000747  00000+0  11021-4 0  9995
2 60398  53.1582 181.9669 0001101 109.4230 250.6907 15.69712594111588
STARLINK-11182 [DTC]    
1 60399U 24141B   26195.95602985  .00001610  00000+0  18147-4 0  9998
2 60399  53.1585 178.7298 0001332  91.3219 268.7951 15.69707076111731
STARLINK-11234 [DTC]    
1 60400U 24141C   26195.25076088  .00002282  00000+0  23700-4 0  9990
2 60400  53.1604 182.1488 0001226 115.6888 244.4257 15.69696087111571
STARLINK-11232 [DTC]    
1 60401U 24141D   26195.24586624  .00000749  00000+0  11047-4 0  9999
2 60401  53.1603 182.1192 0002011  82.0830 278.0416 15.69718408111628
STARLINK-11139 [DTC]    
1 60402U 24141E   26195.36829855 -.00000170  00000+0  34556-5 0  9999
2 60402  53.1591 181.4605 0001107 102.1676 257.9466 15.69709661111647
STARLINK-11158 [DTC]    
1 60403U 24141F   26195.93650718  .00010672  00000+0  93043-4 0  9995
2 60403  53.1593 179.3338 0001237 107.4318 252.6835 15.69653934111670
STARLINK-11199 [DTC]    
1 60404U 24141G   26195.93157754  .00004105  00000+0  38678-4 0  9995
2 60404  53.1593 179.3020 0001209  51.7386 308.3741 15.69742285111723
STARLINK-11081 [DTC]    
1 60405U 24141H   26195.35367842 -.00000102  00000+0  40088-5 0  9996
2 60405  53.1592 182.0919 0000844  88.6476 271.4639 15.69716058111583
STARLINK-11150 [DTC]    
1 60406U 24141J   26195.34877510 -.00000098  00000+0  40453-5 0  9994
2 60406  53.1604 182.0574 0001023 104.5570 255.5562 15.69715526111631
STARLINK-11136 [DTC]    
1 60407U 24141K   26195.98055343  .00013069  00000+0  11283-3 0  9995
2 60407  53.1596 178.8858 0001346 116.9338 243.1817 15.69650979111688
STARLINK-11196 [DTC]    
1 60408U 24141L   26195.40262567  .00001033  00000+0  13375-4 0  9994
2 60408  53.1571 181.6821 0000997  83.1308 276.9824 15.69720547111644
STARLINK-11174 [DTC]    
1 60409U 24141M   26195.26548512  .00001282  00000+0  15442-4 0  9999
2 60409  53.1599 182.2438 0000903  44.3359 315.7731 15.69701016111579
STARLINK-11191 [DTC]    
1 60410U 24141N   26195.96093862  .00001900  00000+0  20542-4 0  9995
2 60410  53.1598 178.7564 0001165  86.1011 274.0140 15.69705307111736
STARLINK-32244          
1 60411U 24141P   26195.75836940 -.00000620  00000+0 -82073-5 0  9993
2 60411  53.1619  11.7847 0001234  80.9153 279.1988 15.31699460109045
STARLINK-32186          
1 60412U 24141Q   26195.80288703 -.00001491  00000+0 -33043-4 0  9997
2 60412  53.1609   9.9376 0000893 133.7051 226.4026 15.34379126109017
STARLINK-32178          
1 60413U 24141R   26195.79446303  .00000160  00000+0  15877-4 0  9993
2 60413  53.1620   9.8803 0001122 101.8848 258.2281 15.34390171109010
STARLINK-32234          
1 60414U 24141S   26195.81427983  .00007591  00000+0  25615-3 0  9995
2 60414  53.1599  11.4190 0001038  95.7827 264.3293 15.31697912109053
STARLINK-32265          
1 60415U 24141T   26195.80077642  .00003928  00000+0  12746-3 0  9999
2 60415  53.1616   9.9222 0001397 112.1483 247.9668 15.34370143109074
STARLINK-32197          
1 60416U 24141U   26195.75134436  .00000753  00000+0  36005-4 0  9997
2 60416  53.1623   1.7781 0001126  93.8574 266.2556 15.31708600109125
