OBJECT_NAME,OBJECT_ID,EPOCH,MEAN_MOTION,ECCENTRICITY,INCLINATION,RA_OF_ASC_NODE,ARG_OF_PERICENTER,MEAN_ANOMALY,EPHEMERIS_TYPE,CLASSIFICATION_TYPE,NORAD_CAT_ID,ELEMENT_SET_NO,REV_AT_EPOCH,BSTAR,MEAN_MOTION_DOT,MEAN_MOTION_DDOT
QIANFAN-8,2024-140H,2026-07-14T21:35:53.955456,13.51015213,.00143471,88.9740,277.0530,302.4593,57.5171,0,U,60386,999,9626,.12789274E-3,.95E-6,0
QIANFAN-9,2024-140J,2026-07-14T21:00:13.008384,13.51020811,.00140215,88.9738,277.1265,302.2963,57.6830,0,U,60387,999,9624,.12298162E-3,.91E-6,0
QIANFAN-10,2024-140K,2026-07-14T21:06:09.205344,13.51022062,.00123279,88.9749,276.4956,275.7736,84.2009,0,U,60388,999,9637,.1607819E-3,.116E-5,0
QIANFAN-11,2024-140L,2026-07-14T21:59:32.908704,13.51015983,.00120632,88.9674,276.9178,302.4114,57.5870,0,U,60389,999,9603,.15000255E-3,.109E-5,0
QIANFAN-12,2024-140M,2026-07-14T22:29:16.181376,13.51018122,.00110404,88.9717,277.0524,312.5304,47.4914,0,U,60390,999,9616,.11907994E-3,.89E-6,0
QIANFAN-13,2024-140N,2026-07-14T21:47:44.175552,13.51018238,.00109261,88.9729,277.1812,315.8869,44.1410,0,U,60391,999,9618,.13534531E-3,.99E-6,0
QIANFAN-14,2024-140P,2026-07-14T22:23:23.395488,13.51011746,.00145911,88.9708,277.0310,314.0610,45.9339,0,U,60392,999,9619,.13287323E-3,.98E-6,0
QIANFAN-15,2024-140Q,2026-07-14T20:48:29.772864,13.51012217,.00101421,88.9731,277.0452,299.6616,60.3525,0,U,60393,999,9617,.12528637E-3,.93E-6,0
QIANFAN-16,2024-140R,2026-07-14T22:17:25.308960,13.51020159,.00126516,88.9734,277.1650,319.4080,40.6127,0,U,60394,999,9609,.13891868E-3,.102E-5,0
QIANFAN-17,2024-140S,2026-07-14T22:11:24.751392,13.51016183,.00128819,88.9745,277.2347,311.9419,48.0634,0,U,60395,999,9705,.14062753E-3,.103E-5,0
QIANFAN-18,2024-140T,2026-07-14T21:41:45.042720,13.51015637,.00119396,88.9739,276.7563,291.7587,68.2293,0,U,60396,999,9644,.12086287E-3,.9E-6,0
STARLINK-11228 [DTC],2024-141A,2026-07-14T08:01:02.654400,15.69712594,.00011016,53.1582,181.9669,109.4230,250.6907,0,U,60398,999,11158,.11020652E-4,.747E-5,0
STARLINK-11182 [DTC],2024-141B,2026-07-14T22:56:40.979040,15.69707076,.00013321,53.1585,178.7298,91.3219,268.7951,0,U,60399,999,11173,.18146896E-4,.161E-4,0
STARLINK-11234 [DTC],2024-141C,2026-07-14T06:01:05.740032,15.69696087,.00012261,53.1604,182.1488,115.6888,244.4257,0,U,60400,999,11157,.23700438E-4,.2282E-4,0
STARLINK-11232 [DTC],2024-141D,2026-07-14T05:54:02.843136,15.69718408,.00020115,53.1603,182.1192,82.0830,278.0416,0,U,60401,999,11162,.11047101E-4,.749E-5,0
STARLINK-11139 [DTC],2024-141E,2026-07-14T08:50:20.994720,15.69709661,.00011071,53.1591,181.4605,102.1676,257.9466,0,U,60402,999,11164,.345562E-5,-.17E-5,0
STARLINK-11158 [DTC],2024-141F,2026-07-14T22:28:34.220352,15.69653934,.00012376,53.1593,179.3338,107.4318,252.6835,0,U,60403,999,11167,.93042826E-4,.10672E-3,0
STARLINK-11199 [DTC],2024-141G,2026-07-14T22:21:28.299456,15.69742285,.00012091,53.1593,179.3020,51.7386,308.3741,0,U,60404,999,11172,.38677544E-4,.4105E-4,0
STARLINK-11081 [DTC],2024-141H,2026-07-14T08:29:17.815488,15.69716058,.00008443,53.1592,182.0919,88.6476,271.4639,0,U,60405,999,11158,.4008778E-5,-.102E-5,0
STARLINK-11150 [DTC],2024-141J,2026-07-14T08:22:14.168640,15.69715526,.00010235,53.1604,182.0574,104.5570,255.5562,0,U,60406,999,11163,.4045289E-5,-.98E-6,0
STARLINK-11136 [DTC],2024-141K,2026-07-14T23:31:59.816352,15.69650979,.00013462,53.1596,178.8858,116.9338,243.1817,0,U,60407,999,11168,.11282938E-3,.13069E-3,0
STARLINK-11196 [DTC],2024-141L,2026-07-14T09:39:46.857888,15.69720547,.00009977,53.1571,181.6821,83.1308,276.9824,0,U,60408,999,11164,.13375325E-4,.1033E-4,0
STARLINK-11174 [DTC],2024-141M,2026-07-14T06:22:17.914368,15.69701016,.00009032,53.1599,182.2438,44.3359,315.7731,0,U,60409,999,11157,.15442313E-4,.1282E-4,0
STARLINK-11191 [DTC],2024-141N,2026-07-14T23:03:45.096768,15.69705307,.00011654,53.1598,178.7564,86.1011,274.0140,0,U,60410,999,11173,.20541903E-4,.19E-4,0
STARLINK-32244,2024-141P,2026-07-14T18:12:03.116160,15.31699460,.00012349,53.1619,11.7847,80.9153,279.1988,0,U,60411,999,10904,-.8207276E-5,-.62E-5,0
STARLINK-32186,2024-141Q,2026-07-14T19:16:09.439392,15.34379126,.00008938,53.1609,9.9376,133.7051,226.4026,0,U,60412,999,10901,-.33043453E-4,-.1491E-4,0
STARLINK-32178,2024-141R,2026-07-14T19:04:01.605792,15.34390171,.00011222,53.1620,9.8803,101.8848,258.2281,0,U,60413,999,10901,.15877208E-4,.16E-5,0
STARLINK-32234,2024-141S,2026-07-14T19:32:33.777312,15.31697912,.00010387,53.1599,11.4190,95.7827,264.3293,0,U,60414,999,10905,.25614587E-3,.7591E-4,0
STARLINK-32265,2024-141T,2026-07-14T19:13:07.082688,15.34370143,.00013977,53.1616,9.9222,112.1483,247.9668,0,U,60415,999,10907,.12745579E-3,.3928E-4,0
STARLINK-32197,2024-141U,2026-07-14T18:01:56.152704,15.31708600,.00011269,53.1623,1.7781,93.8574,266.2556,0,U,60416,999,10912,.36005431E-4,.753E-5,0
